[{"OBJECT_NAME":"LEMUR-2-DEMBITZ","OBJECT_ID":"2017-042T","EPOCH":"2026-03-09T11:23:53.232288","MEAN_MOTION":15.26947128,"ECCENTRICITY":0.00069617,"INCLINATION":97.3807,"RA_OF_ASC_NODE":250.9241,"ARG_OF_PERICENTER":17.1421,"MEAN_ANOMALY":343.0051,"EPHEMERIS_TYPE":0,"CLASSIFICATION_TYPE":"U","NORAD_CAT_ID":42842,"ELEMENT_SET_NO":999,"REV_AT_EPOCH":47311,"BSTAR":0.00076560825,"MEAN_MOTION_DOT":0.00020231,"MEAN_MOTION_DDOT":0},{"OBJECT_NAME":"STARLINK-31861","OBJECT_ID":"2024-100X","EPOCH":"2026-03-09T04:42:32.806656","MEAN_MOTION":15.27559822,"ECCENTRICITY":7.599e-5,"INCLINATION":43.0017,"RA_OF_ASC_NODE":121.043,"ARG_OF_PERICENTER":272.0298,"MEAN_ANOMALY":88.0466,"EPHEMERIS_TYPE":0,"CLASSIFICATION_TYPE":"U","NORAD_CAT_ID":59906,"ELEMENT_SET_NO":999,"REV_AT_EPOCH":10115,"BSTAR":-2.2781301e-5,"MEAN_MOTION_DOT":-8.88e-6,"MEAN_MOTION_DDOT":0}]
